ORBCOMM FM103 [+]       
1 40091U 14040F   23270.90470095  .00001107  00000+0  28735-3 0  9997
2 40091  47.0053  99.3375 0002347 274.9191  85.1425 14.55908639489545
ORBCOMM FM114 [+]       
1 41179U 15081A   23270.32272466  .00001786  00000+0  44007-3 0  9992
2 41179  47.0042  11.4407 0001912 306.7607  53.3102 14.55941221412768
ORBCOMM FM119 [-]       
1 41180U 15081B   23270.42686811  .00001145  00000+0  29600-3 0  9999
2 41180  47.0007 280.1451 0001052   5.7435 354.3462 14.55902595414031
ORBCOMM FM105 [-]       
1 41181U 15081C   23270.59267831  .00000689  00000+0  24538-3 0  9992
2 41181  47.0011 225.8874 0001914 358.6144   1.4730 14.44021843409977
ORBCOMM FM110 [+]       
1 41182U 15081D   23270.29970075  .00001890  00000+0  46369-3 0  9992
2 41182  47.0035  10.9771 0002321 198.6548 161.4252 14.55930451412635
ORBCOMM FM118 [+]       
1 41183U 15081E   23270.55162053  .00001879  00000+0  46101-3 0  9992
2 41183  47.0056  10.0540 0002480 194.8796 165.2016 14.55938907412851
ORBCOMM FM112 [+]       
1 41184U 15081F   23270.33649977  .00001182  00000+0  30443-3 0  9993
2 41184  46.9989 279.8327 0001510 349.9465  10.1389 14.55870789413969
ORBCOMM FM113 [+]       
1 41185U 15081G   23271.06748653  .00001105  00000+0  28668-3 0  9997
2 41185  47.0009 276.6098 0001003 341.5084  18.5764 14.55925538414128
